[{"OBJECT_NAME":"STARLINK-5246","OBJECT_ID":"2022-141AT","EPOCH":"2026-03-09T23:28:38.960544","MEAN_MOTION":15.08844367,"ECCENTRICITY":0.0001246,"INCLINATION":53.2201,"RA_OF_ASC_NODE":352.6702,"ARG_OF_PERICENTER":87.9274,"MEAN_ANOMALY":272.1861,"EPHEMERIS_TYPE":0,"CLASSIFICATION_TYPE":"U","NORAD_CAT_ID":54198,"ELEMENT_SET_NO":999,"REV_AT_EPOCH":18604,"BSTAR":0.00025108637,"MEAN_MOTION_DOT":3.711e-5,"MEAN_MOTION_DDOT":0},{"OBJECT_NAME":"OV1-14 R\/B","OBJECT_ID":"1968-026C","EPOCH":"2026-03-09T17:07:27.641568","MEAN_MOTION":6.98133656,"ECCENTRICITY":0.40203483,"INCLINATION":99.992,"RA_OF_ASC_NODE":340.209,"ARG_OF_PERICENTER":353.0512,"MEAN_ANOMALY":28.2202,"EPHEMERIS_TYPE":0,"CLASSIFICATION_TYPE":"U","NORAD_CAT_ID":3177,"ELEMENT_SET_NO":999,"REV_AT_EPOCH":47026,"BSTAR":0.00089156725,"MEAN_MOTION_DOT":6.42e-6,"MEAN_MOTION_DDOT":0}]
